ONEWEB-0180             
1 48213U 21031D   26004.27361681 -.00000039  00000+0 -13989-3 0  9997
2 48213  87.9023 322.3495 0001380  82.0466 278.0821 13.14502430226680
ONEWEB-0218             
1 48214U 21031E   26003.91521142 -.00000066  00000+0 -21159-3 0  9996
2 48214  87.9020 322.4214 0001077  52.0444 308.0783 13.14504738226790
ONEWEB-0209             
1 48215U 21031F   26004.28471718 -.00000133  00000+0 -39200-3 0  9992
2 48215  87.9008 322.3821 0001602  86.0683 274.0629 13.14502531226842
ONEWEB-0198             
1 48216U 21031G   26004.26899460  .00000077  00000+0  17380-3 0  9999
2 48216  87.9011 322.3819 0001248  79.9913 280.1358 13.14501818226953
ONEWEB-0189             
1 48217U 21031H   26004.28153967 -.00000151  00000+0 -44060-3 0  9997
2 48217  87.9015 322.3545 0001379  79.1206 281.0079 13.14501609226695
ONEWEB-0196             
1 48218U 21031J   26004.25932574  .00000291  00000+0  75033-3 0  9991
2 48218  87.9009 322.3719 0001530  81.1144 279.0159 13.14505111226693
ONEWEB-0183             
1 48219U 21031K   26004.23397267  .00000160  00000+0  39651-3 0  9995
2 48219  87.9003 322.3795 0001844  85.7998 274.3342 13.14502618226788
ONEWEB-0185             
1 48220U 21031L   26004.26011775  .00000131  00000+0  32004-3 0  9990
2 48220  87.9016 322.3546 0001651  94.7580 265.3738 13.14504000226710
ONEWEB-0187             
1 48221U 21031M   26004.24018215  .00000057  00000+0  11837-3 0  9993
2 48221  87.9004 322.3971 0001522  86.4448 273.6856 13.14501299226729
ONEWEB-0192             
1 48222U 21031N   26004.28630233 -.00000122  00000+0 -36483-3 0  9997
2 48222  87.9004 322.3774 0001624  78.8711 281.2602 13.14502816226643
ONEWEB-0219             
1 48223U 21031P   26004.26568517  .00000188  00000+0  47213-3 0  9994
2 48223  87.9012 322.3612 0001619  88.3227 271.8088 13.14502243226845
ONEWEB-0202             
1 48224U 21031Q   26003.86606585  .00000275  00000+0  70634-3 0  9998
2 48224  87.9008 322.4514 0001044  65.9671 294.1568 13.14502992226773
ONEWEB-0204             
1 48225U 21031R   26004.28074966 -.00000120  00000+0 -35754-3 0  9993
2 48225  87.9014 322.3603 0001891  87.7333 272.4013 13.14505119226729
ONEWEB-0205             
1 48226U 21031S   26004.25617373  .00000349  00000+0  90565-3 0  9998
2 48226  87.9013 322.3580 0001619  84.6635 275.4680 13.14502116226730
ONEWEB-0206             
1 48227U 21031T   26004.30533832 -.00000015  00000+0 -74159-4 0  9996
2 48227  87.9024 322.3410 0001866  73.5344 286.5991 13.14504841226693
ONEWEB-0182             
1 48228U 21031U   26004.30057413 -.00000098  00000+0 -29913-3 0  9991
2 48228  87.9001 322.3660 0001893  85.8110 274.3236 13.14502970226905
