[{"OBJECT_NAME":"ONEWEB-0180","OBJECT_ID":"2021-031D","EPOCH":"2026-01-04T06:34:00.492384","MEAN_MOTION":13.1450243,"ECCENTRICITY":0.00013803,"INCLINATION":87.9023,"RA_OF_ASC_NODE":322.3495,"ARG_OF_PERICENTER":82.0466,"MEAN_ANOMALY":278.0821,"EPHEMERIS_TYPE":0,"CLASSIFICATION_TYPE":"U","NORAD_CAT_ID":48213,"ELEMENT_SET_NO":999,"REV_AT_EPOCH":22668,"BSTAR":-0.00013988749,"MEAN_MOTION_DOT":-3.9e-7,"MEAN_MOTION_DDOT":0},{"OBJECT_NAME":"ONEWEB-0218","OBJECT_ID":"2021-031E","EPOCH":"2026-01-03T21:57:54.266688","MEAN_MOTION":13.14504738,"ECCENTRICITY":0.0001077,"INCLINATION":87.902,"RA_OF_ASC_NODE":322.4214,"ARG_OF_PERICENTER":52.0444,"MEAN_ANOMALY":308.0783,"EPHEMERIS_TYPE":0,"CLASSIFICATION_TYPE":"U","NORAD_CAT_ID":48214,"ELEMENT_SET_NO":999,"REV_AT_EPOCH":22679,"BSTAR":-0.00021159,"MEAN_MOTION_DOT":-6.6e-7,"MEAN_MOTION_DDOT":0},{"OBJECT_NAME":"ONEWEB-0209","OBJECT_ID":"2021-031F","EPOCH":"2026-01-04T06:49:59.564352","MEAN_MOTION":13.14502531,"ECCENTRICITY":0.00016021,"INCLINATION":87.9008,"RA_OF_ASC_NODE":322.3821,"ARG_OF_PERICENTER":86.0683,"MEAN_ANOMALY":274.0629,"EPHEMERIS_TYPE":0,"CLASSIFICATION_TYPE":"U","NORAD_CAT_ID":48215,"ELEMENT_SET_NO":999,"REV_AT_EPOCH":22684,"BSTAR":-0.00039199609,"MEAN_MOTION_DOT":-1.33e-6,"MEAN_MOTION_DDOT":0},{"OBJECT_NAME":"ONEWEB-0198","OBJECT_ID":"2021-031G","EPOCH":"2026-01-04T06:27:21.133440","MEAN_MOTION":13.14501818,"ECCENTRICITY":0.00012487,"INCLINATION":87.9011,"RA_OF_ASC_NODE":322.3819,"ARG_OF_PERICENTER":79.9913,"MEAN_ANOMALY":280.1358,"EPHEMERIS_TYPE":0,"CLASSIFICATION_TYPE":"U","NORAD_CAT_ID":48216,"ELEMENT_SET_NO":999,"REV_AT_EPOCH":22695,"BSTAR":0.000173801,"MEAN_MOTION_DOT":7.7e-7,"MEAN_MOTION_DDOT":0},{"OBJECT_NAME":"ONEWEB-0189","OBJECT_ID":"2021-031H","EPOCH":"2026-01-04T06:45:25.027488","MEAN_MOTION":13.14501609,"ECCENTRICITY":0.0001379,"INCLINATION":87.9015,"RA_OF_ASC_NODE":322.3545,"ARG_OF_PERICENTER":79.1206,"MEAN_ANOMALY":281.0079,"EPHEMERIS_TYPE":0,"CLASSIFICATION_TYPE":"U","NORAD_CAT_ID":48217,"ELEMENT_SET_NO":999,"REV_AT_EPOCH":22669,"BSTAR":-0.00044060483,"MEAN_MOTION_DOT":-1.51e-6,"MEAN_MOTION_DDOT":0},{"OBJECT_NAME":"ONEWEB-0196","OBJECT_ID":"2021-031J","EPOCH":"2026-01-04T06:13:25.743936","MEAN_MOTION":13.14505111,"ECCENTRICITY":0.00015307,"INCLINATION":87.9009,"RA_OF_ASC_NODE":322.3719,"ARG_OF_PERICENTER":81.1144,"MEAN_ANOMALY":279.0159,"EPHEMERIS_TYPE":0,"CLASSIFICATION_TYPE":"U","NORAD_CAT_ID":48218,"ELEMENT_SET_NO":999,"REV_AT_EPOCH":22669,"BSTAR":0.00075032567,"MEAN_MOTION_DOT":2.91e-6,"MEAN_MOTION_DDOT":0},{"OBJECT_NAME":"ONEWEB-0183","OBJECT_ID":"2021-031K","EPOCH":"2026-01-04T05:36:55.238688","MEAN_MOTION":13.14502618,"ECCENTRICITY":0.00018447,"INCLINATION":87.9003,"RA_OF_ASC_NODE":322.3795,"ARG_OF_PERICENTER":85.7998,"MEAN_ANOMALY":274.3342,"EPHEMERIS_TYPE":0,"CLASSIFICATION_TYPE":"U","NORAD_CAT_ID":48219,"ELEMENT_SET_NO":999,"REV_AT_EPOCH":22678,"BSTAR":0.0003965112,"MEAN_MOTION_DOT":1.6e-6,"MEAN_MOTION_DDOT":0},{"OBJECT_NAME":"ONEWEB-0185","OBJECT_ID":"2021-031L","EPOCH":"2026-01-04T06:14:34.173600","MEAN_MOTION":13.14504,"ECCENTRICITY":0.00016519,"INCLINATION":87.9016,"RA_OF_ASC_NODE":322.3546,"ARG_OF_PERICENTER":94.758,"MEAN_ANOMALY":265.3738,"EPHEMERIS_TYPE":0,"CLASSIFICATION_TYPE":"U","NORAD_CAT_ID":48220,"ELEMENT_SET_NO":999,"REV_AT_EPOCH":22671,"BSTAR":0.00032004425,"MEAN_MOTION_DOT":1.31e-6,"MEAN_MOTION_DDOT":0},{"OBJECT_NAME":"ONEWEB-0187","OBJECT_ID":"2021-031M","EPOCH":"2026-01-04T05:45:51.737760","MEAN_MOTION":13.14501299,"ECCENTRICITY":0.00015225,"INCLINATION":87.9004,"RA_OF_ASC_NODE":322.3971,"ARG_OF_PERICENTER":86.4448,"MEAN_ANOMALY":273.6856,"EPHEMERIS_TYPE":0,"CLASSIFICATION_TYPE":"U","NORAD_CAT_ID":48221,"ELEMENT_SET_NO":999,"REV_AT_EPOCH":22672,"BSTAR":0.00011837257,"MEAN_MOTION_DOT":5.7e-7,"MEAN_MOTION_DDOT":0},{"OBJECT_NAME":"ONEWEB-0192","OBJECT_ID":"2021-031N","EPOCH":"2026-01-04T06:52:16.521312","MEAN_MOTION":13.14502816,"ECCENTRICITY":0.0001624,"INCLINATION":87.9004,"RA_OF_ASC_NODE":322.3774,"ARG_OF_PERICENTER":78.8711,"MEAN_ANOMALY":281.2602,"EPHEMERIS_TYPE":0,"CLASSIFICATION_TYPE":"U","NORAD_CAT_ID":48222,"ELEMENT_SET_NO":999,"REV_AT_EPOCH":22664,"BSTAR":-0.00036483172,"MEAN_MOTION_DOT":-1.22e-6,"MEAN_MOTION_DDOT":0},{"OBJECT_NAME":"ONEWEB-0219","OBJECT_ID":"2021-031P","EPOCH":"2026-01-04T06:22:35.198688","MEAN_MOTION":13.14502243,"ECCENTRICITY":0.00016198,"INCLINATION":87.9012,"RA_OF_ASC_NODE":322.3612,"ARG_OF_PERICENTER":88.3227,"MEAN_ANOMALY":271.8088,"EPHEMERIS_TYPE":0,"CLASSIFICATION_TYPE":"U","NORAD_CAT_ID":48223,"ELEMENT_SET_NO":999,"REV_AT_EPOCH":22684,"BSTAR":0.00047212745,"MEAN_MOTION_DOT":1.88e-6,"MEAN_MOTION_DDOT":0},{"OBJECT_NAME":"ONEWEB-0202","OBJECT_ID":"2021-031Q","EPOCH":"2026-01-03T20:47:08.089440","MEAN_MOTION":13.14502992,"ECCENTRICITY":0.00010448,"INCLINATION":87.9008,"RA_OF_ASC_NODE":322.4514,"ARG_OF_PERICENTER":65.9671,"MEAN_ANOMALY":294.1568,"EPHEMERIS_TYPE":0,"CLASSIFICATION_TYPE":"U","NORAD_CAT_ID":48224,"ELEMENT_SET_NO":999,"REV_AT_EPOCH":22677,"BSTAR":0.00070633604,"MEAN_MOTION_DOT":2.75e-6,"MEAN_MOTION_DDOT":0},{"OBJECT_NAME":"ONEWEB-0204","OBJECT_ID":"2021-031R","EPOCH":"2026-01-04T06:44:16.770624","MEAN_MOTION":13.14505119,"ECCENTRICITY":0.00018914,"INCLINATION":87.9014,"RA_OF_ASC_NODE":322.3603,"ARG_OF_PERICENTER":87.7333,"MEAN_ANOMALY":272.4013,"EPHEMERIS_TYPE":0,"CLASSIFICATION_TYPE":"U","NORAD_CAT_ID":48225,"ELEMENT_SET_NO":999,"REV_AT_EPOCH":22672,"BSTAR":-0.00035753978,"MEAN_MOTION_DOT":-1.2e-6,"MEAN_MOTION_DDOT":0},{"OBJECT_NAME":"ONEWEB-0205","OBJECT_ID":"2021-031S","EPOCH":"2026-01-04T06:08:53.410272","MEAN_MOTION":13.14502116,"ECCENTRICITY":0.00016199,"INCLINATION":87.9013,"RA_OF_ASC_NODE":322.358,"ARG_OF_PERICENTER":84.6635,"MEAN_ANOMALY":275.468,"EPHEMERIS_TYPE":0,"CLASSIFICATION_TYPE":"U","NORAD_CAT_ID":48226,"ELEMENT_SET_NO":999,"REV_AT_EPOCH":22673,"BSTAR":0.00090565073,"MEAN_MOTION_DOT":3.49e-6,"MEAN_MOTION_DDOT":0},{"OBJECT_NAME":"ONEWEB-0206","OBJECT_ID":"2021-031T","EPOCH":"2026-01-04T07:19:41.230848","MEAN_MOTION":13.14504841,"ECCENTRICITY":0.00018663,"INCLINATION":87.9024,"RA_OF_ASC_NODE":322.341,"ARG_OF_PERICENTER":73.5344,"MEAN_ANOMALY":286.5991,"EPHEMERIS_TYPE":0,"CLASSIFICATION_TYPE":"U","NORAD_CAT_ID":48227,"ELEMENT_SET_NO":999,"REV_AT_EPOCH":22669,"BSTAR":-7.41591e-5,"MEAN_MOTION_DOT":-1.5e-7,"MEAN_MOTION_DDOT":0},{"OBJECT_NAME":"ONEWEB-0182","OBJECT_ID":"2021-031U","EPOCH":"2026-01-04T07:12:49.604832","MEAN_MOTION":13.1450297,"ECCENTRICITY":0.00018931,"INCLINATION":87.9001,"RA_OF_ASC_NODE":322.366,"ARG_OF_PERICENTER":85.811,"MEAN_ANOMALY":274.3236,"EPHEMERIS_TYPE":0,"CLASSIFICATION_TYPE":"U","NORAD_CAT_ID":48228,"ELEMENT_SET_NO":999,"REV_AT_EPOCH":22690,"BSTAR":-0.00029913022,"MEAN_MOTION_DOT":-9.8e-7,"MEAN_MOTION_DDOT":0}]
